YAOGAN-35 01A           
1 49390U 21101A   26068.78009532  .00012075  00000+0  47335-3 0  9995
2 49390  34.9903 183.8731 0005688 189.0601 171.0012 15.24952145241689
STARLINK-31156          
1 58743U 24005R   26068.45950290  .00000176  00000+0  16221-4 0  9993
2 58743  42.9990 220.6172 0001002 291.5066  68.5679 15.26738284120464
